#dP2022  6 12  0  0  0.00000000      96 __u+U ITR00 FIT  IAC
## 2214      0.00000000   900.00000000 59742 0.0000000000000
+  116   C06C07C08C09C10C11C12C13C14C16C19C20C21C22C23C24C25
+        C26C27C28C29C30C32C33C34C35C36C37C38C39C40C41C42C43
+        C44C45C46E01E02E03E04E05E07E08E09E10E11E12E13E14E15
+        E18E19E21E24E25E26E27E30E31E33E34E36G01G02G03G04G05
+        G06G07G08G09G10G11G12G13G14G15G16G17G18G19G20G21G22
+        G23G24G25G26G27G28G29G30G31G32J02J03R01R02R03R04R05
+        R07R08R09R11R12R13R14R15R17R18R19R20R21R24  0  0  0
++         7  8  8  8  7  7  7  6  7  8  6  7  7  5  7  7  6
++         6  7  7  8  6  8  7  6  6  6  6  8  8  9  5  7  7
++         5  6  7  5  7  6  6  5  6  7  6  6  7  6  5  7  6
++         6  5  6  7  7  5  6  6  7  5  7  6  5  6  5  5  6
++         6  5  6  5  6  5  6  5  7  6  6  5  6  6  6  3  6
++         5  5  5  6  7  6  5  6  6  6  9  6  7  8  5  5  5
++         7  6  7  6  6  7  7  6  6  5  7  7  7  6  0  0  0
%c M  cc GPS ccc cccc cccc cccc cccc ccccc ccccc ccccc ccccc
%c cc cc ccc ccc cccc cccc cccc cccc ccccc ccccc ccccc ccccc
%f  0.0000000  0.000000000  0.00000000000  0.000000000000000
%f  0.0000000  0.000000000  0.00000000000  0.000000000000000
%i    0    0    0    0      0      0      0      0         0
%i    0    0    0    0      0      0      0      0         0
/* INFORMATION & ANALYSIS CENTER (IAC)      ULTRA-RAPID DATA
/* S/V CLOCKS ARE ALIGNED TO GNSS TIME                      
/* G:C1WC2W R:C1PC2P E:C1XC5X C:C2IC6I J:C1CC2S             
/* PCV:IGS14_2196 OL/AL:FES2004  NONE     YN ORB:CoN CLK:CoN
*  2022 06 12 23 15  0.00000000
PC06 -10966.276992  40584.455456   1235.746004    177.255304
PC07  -2249.158062  30069.775970  29540.076455   -291.099537
PC08 -16852.397061  23084.287679 -31064.532497    359.475146
PC09  -7310.268503  40428.884372   8568.336028   -877.570242
PC10   5890.164541  32916.227091  26218.530405    126.683149
PC11 -15560.105287   -632.802664  23214.550974    410.798013
PC12  -7942.180375 -19431.667073  18406.490880   -599.577611
PC13  -9858.865500  24401.628324 -32888.848492     -5.639434
PC14 -23010.236827  -8219.390124 -13400.412635    501.322227
PC16 -13121.993784  39834.966278  -2532.195825    139.045458
PC19  19651.563808   -655.310987  19840.319148    858.775465
PC20  22919.132484  14565.280112   6525.051006   -956.585060
PC21 -12509.082855 -22045.539148  11660.655590   -473.362062
PC22   4916.887422 -16126.760692  22235.070330   -964.792870
PC23 -16256.018985  16739.220013  15315.332996   -933.853595
PC24 -21111.950849  -6220.370240 -17172.753913   -970.912289
PC25 -26474.941343   8845.458170   -436.278635   -722.761809
PC26  -5022.474593 -15466.916177 -22686.264970    724.337564
PC27   2486.349301  25248.420482 -11632.537101    738.052400
PC28  -9672.394230  25621.928356   5368.039636     77.868287
PC29  16140.219134 -11137.862227 -19866.678496    567.575826
PC30  13533.130636  10629.019790 -21976.146811    499.818000
PC32  12689.837706  21955.455375 -11648.203231   -967.985170
PC33 -19675.918338    720.478709 -19759.087461   -969.364966
PC34 -13929.442583  -9575.636724  22190.992109   -382.184449
PC35   9422.229225 -25496.083194  -6409.413412    317.931924
PC36  26760.727925  -7853.694570    983.001118   -967.714336
PC37   3280.098050  15995.351927  22650.230630   -909.162198
PC38 -23638.126966  24426.288294 -25025.653259      2.737265
PC39 -14465.900323  38474.599893  -8977.877764     34.995102
PC40  -6165.855215  24796.908937  33567.668916    276.940943
PC41  -5293.817444  15870.194432 -22282.309121 999999.999999
PC42 -22692.896396 -15265.674854  -5431.877850   -961.292650
PC43 -16348.009016  10290.887552  20116.854809   -918.522775
PC44  -3267.640871 -25290.126339  11355.950931    690.417624
PC45  15991.137105 -16724.039334 -15579.827311    781.903353
PC46  22120.849400   5059.491694  16227.313222   -375.797949
PE01 -10206.639458  14352.200012  23793.712058   -495.002823
PE02  10002.290094 -14423.123352 -23833.066454    305.288999
PE03   3789.828758 -24600.750630  16011.525894   -568.186642
PE04  10071.926624  27809.978737   1219.942517  -1048.716711
PE05  15689.502082  -6857.332912  24152.731425   -172.717211
PE07 -18277.616426 -14597.784327 -18120.167257   -677.820220
PE08 -10279.508001 -27712.760862  -1423.969825   -545.562581
PE09  18244.262482  14524.163703  18248.818279   -551.361137
PE10  10131.103216  12686.278756 -24765.141079   -519.304277
PE11  17714.557855   3065.110918 -23535.536964   3369.268704
PE12   1441.328218  19844.918912 -21918.292326     -7.878870
PE13 -17219.054094  -3677.590864  23787.669196    429.254595
PE14  18926.667147  -6538.891324 -23704.763469  -1809.619792
PE15  -1271.975207 -19903.247247  21872.847922    739.775100
PE18  -9703.742611  19555.950294  14643.450868  -1336.701694
PE19  -5496.835084  23022.185072 -17763.254749  -5391.173931
PE21 -25870.634829   4125.533449  13779.871803   -739.810113
PE24  27251.484627   9939.637267   5832.950349   -667.413694
PE25  26018.654013  -3932.066025 -13546.461666   -577.364243
PE26 -22969.761443  15202.498935  10832.961473  -1255.635605
PE27 -27747.941972  -9154.078026  -4754.925769   -320.728731
PE30 -12212.574096 -17166.875384 -20804.522017   -587.717349
PE31  13269.992338  16934.707486  20338.474149   -498.174845
PE33 -15333.317258  24304.871348  -7079.607633   -455.694886
PE34  15172.850925 -24355.801827   7240.336466   -521.853332
PE36  22942.417520 -14581.654634 -11729.644901   -387.257175
PG01 -10919.841944  20597.110989 -12691.118202    342.577415
PG02  20880.597974 -14452.774122  -7388.651110   -652.734769
PG03  -2890.744262  14770.140382 -22001.821733   -276.624864
PG04  -2228.797242  24757.660894  -9219.676176   -157.690261
PG05  18091.863463  -7752.582640  17735.755266    -85.313594
PG06  18822.277237   -159.699950 -18712.766234    341.213385
PG07   4783.019020  15865.648135  21069.788642    321.828867
PG08  -7052.444914  19578.566926  16255.317462    -71.898277
PG09   6311.567826  25774.652033    519.693634   -328.898846
PG10 -23269.312738 -11793.330066   5915.861917   -452.524317
PG11  22756.031447 -11096.284121  -7997.861131    -15.542113
PG12   7815.537228 -13111.382364 -21998.918324   -230.198633
PG13  13162.357330 -10762.808809  20204.631278    328.859353
PG14  22064.678797  13269.909377   6721.257721   -111.372046
PG15   4721.617667 -20828.410060  15174.889284    -53.716333
PG16 -22147.643536   1413.559564  14651.511282   -508.495962
PG17  12911.181401  16995.400354 -15341.504242    624.291879
PG18  -3491.424681 -15879.093481  20969.720891    143.860374
PG19  14799.269728   8873.800126 -20512.280807    169.902416
PG20  24874.287039  -2362.889209   8661.275353    511.926920
PG21 -17115.326069  19678.118988  -1662.213408    161.310716
PG22 -15222.184961  -5792.259806 -20598.656765    274.796409
PG23 -15690.394926 -15390.896821  14979.480655    -27.668996
PG24  12489.397361 -21835.945814  -8139.020882    222.047625
PG25  -8083.543996 -16843.434921 -19267.369182    336.619799
PG26 -26080.069242  -3415.838422   4663.361181    211.951847
PG27 -13569.896321   6843.814771  21526.134213    214.892015
PG28  24575.544940   9506.808634  -1563.429361    339.459974
PG29  -4181.875305 -26166.042239   1069.385546   -523.442969
PG30  13737.335526   8693.865930  21122.741238   -531.187834
PG31 -20722.843612   1966.060442 -16888.777808   -181.559571
PG32 -15079.616427 -14071.546975 -16689.875180   -149.753117
PJ02 -29302.862688  22139.052746  25672.968558     -0.643438
PJ03 -30018.977088  27879.259574  14845.511482     -2.813351
PR01  14626.831574   2284.158028  20782.445475      9.858236
PR02   1437.702332 -14517.656116  20987.259234    521.122298
PR03 -11374.115071 -21336.492160   8258.515957     58.333376
PR04 -17510.601936 -16278.311655  -8871.047984    146.162911
PR05 -14093.647070  -2320.820439 -21124.238142     94.526228
PR07  11820.445780  21309.728294  -7421.326471     36.341655
PR08  17642.528949  16020.967622   9124.388857    -65.663249
PR09 -13467.377014  11273.657119  18484.089915     60.163013
PR11  20514.489004   4002.801885  14646.071599     36.392202
PR12  24797.021912  -4949.574827  -3273.159318     18.827850
PR13  14852.021925 -10768.931517 -17736.063741    -23.524291
PR14  -5186.975422 -10371.929664 -22703.414629     25.266981
PR15 -21042.856092  -3885.317860 -13857.869059     95.445371
PR17   1858.617310 -21044.065721  14267.260855    534.396991
PR18  -7744.098540  -8047.875964  22944.437947    120.081741
PR19 -13490.363820   7770.857302  20198.861390   -192.496197
PR20 -12027.955373  22207.859443   3421.517679    -72.508055
PR21  -1115.172427  20266.071983 -15475.653519   -308.942374
PR24  11262.849920 -22720.713519  -2679.601073     98.393129
EOF
